{"fetched_at":"2026-07-21T17:53:03.255Z","source":"https://celestrak.org/NORAD/elements/gp.php?GROUP=kuiper&FORMAT=JSON","constellation":"kuiper","records":[{"OBJECT_NAME":"KUIPER-00265","OBJECT_ID":"2025-301AC","EPOCH":"2026-07-20T23:24:08.344512","CLASSIFICATION_TYPE":"U","MEAN_MOTION":14.79947635,"ECCENTRICITY":0.00003981,"INCLINATION":51.9025,"RA_OF_ASC_NODE":216.2561,"ARG_OF_PERICENTER":80.0441,"MEAN_ANOMALY":280.0566,"EPHEMERIS_TYPE":0,"NORAD_CAT_ID":67159,"ELEMENT_SET_NO":999,"REV_AT_EPOCH":3322,"BSTAR":0.00028845642,"MEAN_MOTION_DOT":0.00001979,"MEAN_MOTION_DDOT":0},{"OBJECT_NAME":"KUIPER-00159","OBJECT_ID":"2026-030A","EPOCH":"2026-07-21T06:00:02.999808","CLASSIFICATION_TYPE":"U","MEAN_MOTION":15.10846339,"ECCENTRICITY":0.00062024,"INCLINATION":51.8988,"RA_OF_ASC_NODE":294.6774,"ARG_OF_PERICENTER":140.7664,"MEAN_ANOMALY":143.4524,"EPHEMERIS_TYPE":0,"NORAD_CAT_ID":67764,"ELEMENT_SET_NO":999,"REV_AT_EPOCH":443,"BSTAR":0.0011561629,"MEAN_MOTION_DOT":0.00019224,"MEAN_MOTION_DDOT":0},{"OBJECT_NAME":"KUIPER-00160","OBJECT_ID":"2026-030B","EPOCH":"2026-07-19T15:54:53.154144","CLASSIFICATION_TYPE":"U","MEAN_MOTION":15.3737216,"ECCENTRICITY":0.00057146,"INCLINATION":51.88,"RA_OF_ASC_NODE":301.1926,"ARG_OF_PERICENTER":159.6819,"MEAN_ANOMALY":200.4396,"EPHEMERIS_TYPE":0,"NORAD_CAT_ID":67765,"ELEMENT_SET_NO":999,"REV_AT_EPOCH":2539,"BSTAR":0.00046595005,"MEAN_MOTION_DOT":0.00016989,"MEAN_MOTION_DDOT":0},{"OBJECT_NAME":"KUIPER-00177","OBJECT_ID":"2026-030C","EPOCH":"2026-07-19T20:11:46.053600","CLASSIFICATION_TYPE":"U","MEAN_MOTION":14.79946958,"ECCENTRICITY":0.00005239,"INCLINATION":51.9025,"RA_OF_ASC_NODE":348.7486,"ARG_OF_PERICENTER":132.9764,"MEAN_ANOMALY":227.1242,"EPHEMERIS_TYPE":0,"NORAD_CAT_ID":67766,"ELEMENT_SET_NO":999,"REV_AT_EPOCH":2474,"BSTAR":0.00023310989,"MEAN_MOTION_DOT":0.00001557,"MEAN_MOTION_DDOT":0},{"OBJECT_NAME":"KUIPER-00178","OBJECT_ID":"2026-030D","EPOCH":"2026-07-20T16:27:17.532576","CLASSIFICATION_TYPE":"U","MEAN_MOTION":14.79948662,"ECCENTRICITY":0.00004603,"INCLINATION":51.9022,"RA_OF_ASC_NODE":344.9991,"ARG_OF_PERICENTER":150.7055,"MEAN_ANOMALY":209.3934,"EPHEMERIS_TYPE":0,"NORAD_CAT_ID":67767,"ELEMENT_SET_NO":999,"REV_AT_EPOCH":2487,"BSTAR":0.00022060092,"MEAN_MOTION_DOT":0.00001462,"MEAN_MOTION_DDOT":0},{"OBJECT_NAME":"KUIPER-00180","OBJECT_ID":"2026-030E","EPOCH":"2026-07-20T18:12:16.799328","CLASSIFICATION_TYPE":"U","MEAN_MOTION":14.7995428,"ECCENTRICITY":0.00003795,"INCLINATION":51.9,"RA_OF_ASC_NODE":339.6782,"ARG_OF_PERICENTER":123.4538,"MEAN_ANOMALY":236.646,"EPHEMERIS_TYPE":0,"NORAD_CAT_ID":67768,"ELEMENT_SET_NO":999,"REV_AT_EPOCH":2495,"BSTAR":0.00027447176,"MEAN_MOTION_DOT":0.00001873,"MEAN_MOTION_DDOT":0},{"OBJECT_NAME":"KUIPER-00197","OBJECT_ID":"2026-030F","EPOCH":"2026-07-21T01:12:22.572000","CLASSIFICATION_TYPE":"U","MEAN_MOTION":14.79939701,"ECCENTRICITY":0.00002983,"INCLINATION":51.901,"RA_OF_ASC_NODE":318.4031,"ARG_OF_PERICENTER":184.3959,"MEAN_ANOMALY":175.7001,"EPHEMERIS_TYPE":0,"NORAD_CAT_ID":67769,"ELEMENT_SET_NO":999,"REV_AT_EPOCH":2527,"BSTAR":0.00029775297,"MEAN_MOTION_DOT":0.0000205,"MEAN_MOTION_DDOT":0},{"OBJECT_NAME":"KUIPER-00198","OBJECT_ID":"2026-030G","EPOCH":"2026-07-20T15:58:07.654368","CLASSIFICATION_TYPE":"U","MEAN_MOTION":14.79937196,"ECCENTRICITY":0.00003692,"INCLINATION":51.9,"RA_OF_ASC_NODE":332.586,"ARG_OF_PERICENTER":111.0157,"MEAN_ANOMALY":249.0845,"EPHEMERIS_TYPE":0,"NORAD_CAT_ID":67770,"ELEMENT_SET_NO":999,"REV_AT_EPOCH":2504,"BSTAR":0.00025455109,"MEAN_MOTION_DOT":0.0000172,"MEAN_MOTION_DDOT":0},{"OBJECT_NAME":"KUIPER-00199","OBJECT_ID":"2026-030H","EPOCH":"2026-07-20T12:48:40.069440","CLASSIFICATION_TYPE":"U","MEAN_MOTION":15.36806245,"ECCENTRICITY":0.00100704,"INCLINATION":51.8814,"RA_OF_ASC_NODE":298.7393,"ARG_OF_PERICENTER":170.1884,"MEAN_ANOMALY":189.9301,"EPHEMERIS_TYPE":0,"NORAD_CAT_ID":67771,"ELEMENT_SET_NO":999,"REV_AT_EPOCH":2550,"BSTAR":0.00046538173,"MEAN_MOTION_DOT":0.00016671,"MEAN_MOTION_DDOT":0},{"OBJECT_NAME":"KUIPER-00200","OBJECT_ID":"2026-030J","EPOCH":"2026-07-21T00:27:58.712256","CLASSIFICATION_TYPE":"U","MEAN_MOTION":14.79904077,"ECCENTRICITY":0.00012645,"INCLINATION":51.8992,"RA_OF_ASC_NODE":316.0665,"ARG_OF_PERICENTER":90.6539,"MEAN_ANOMALY":269.4569,"EPHEMERIS_TYPE":0,"NORAD_CAT_ID":67772,"ELEMENT_SET_NO":999,"REV_AT_EPOCH":2530,"BSTAR":0.00029488506,"MEAN_MOTION_DOT":0.00002026,"MEAN_MOTION_DDOT":0},{"OBJECT_NAME":"KUIPER-00203","OBJECT_ID":"2026-030K","EPOCH":"2026-07-20T18:45:26.292384","CLASSIFICATION_TYPE":"U","MEAN_MOTION":14.79941049,"ECCENTRICITY":0.000057,"INCLINATION":51.9082,"RA_OF_ASC_NODE":349.6401,"ARG_OF_PERICENTER":126.9095,"MEAN_ANOMALY":233.1919,"EPHEMERIS_TYPE":0,"NORAD_CAT_ID":67773,"ELEMENT_SET_NO":999,"REV_AT_EPOCH":2481,"BSTAR":0.00030381554,"MEAN_MOTION_DOT":0.00002096,"MEAN_MOTION_DDOT":0},{"OBJECT_NAME":"KUIPER-00205","OBJECT_ID":"2026-030L","EPOCH":"2026-07-21T00:31:20.708544","CLASSIFICATION_TYPE":"U","MEAN_MOTION":14.7994572,"ECCENTRICITY":0.00009144,"INCLINATION":51.9017,"RA_OF_ASC_NODE":313.5055,"ARG_OF_PERICENTER":132.8076,"MEAN_ANOMALY":227.2964,"EPHEMERIS_TYPE":0,"NORAD_CAT_ID":67774,"ELEMENT_SET_NO":999,"REV_AT_EPOCH":2534,"BSTAR":0.00026479521,"MEAN_MOTION_DOT":0.00001799,"MEAN_MOTION_DDOT":0},{"OBJECT_NAME":"KUIPER-00208","OBJECT_ID":"2026-030M","EPOCH":"2026-07-21T02:14:28.658400","CLASSIFICATION_TYPE":"U","MEAN_MOTION":14.79950854,"ECCENTRICITY":0.00003884,"INCLINATION":51.9009,"RA_OF_ASC_NODE":340.6975,"ARG_OF_PERICENTER":262.9241,"MEAN_ANOMALY":97.1678,"EPHEMERIS_TYPE":0,"NORAD_CAT_ID":67775,"ELEMENT_SET_NO":999,"REV_AT_EPOCH":2496,"BSTAR":-0.00068059589,"MEAN_MOTION_DOT":-0.00005407,"MEAN_MOTION_DDOT":0},{"OBJECT_NAME":"KUIPER-00209","OBJECT_ID":"2026-030N","EPOCH":"2026-07-20T09:17:31.441344","CLASSIFICATION_TYPE":"U","MEAN_MOTION":14.79932112,"ECCENTRICITY":0.00005678,"INCLINATION":51.9016,"RA_OF_ASC_NODE":341.4121,"ARG_OF_PERICENTER":148.5547,"MEAN_ANOMALY":211.5449,"EPHEMERIS_TYPE":0,"NORAD_CAT_ID":67776,"ELEMENT_SET_NO":999,"REV_AT_EPOCH":2489,"BSTAR":0.00022937142,"MEAN_MOTION_DOT":0.00001528,"MEAN_MOTION_DDOT":0},{"OBJECT_NAME":"KUIPER-00213","OBJECT_ID":"2026-030P","EPOCH":"2026-07-21T07:14:10.171104","CLASSIFICATION_TYPE":"U","MEAN_MOTION":14.79943094,"ECCENTRICITY":0.00005358,"INCLINATION":51.8974,"RA_OF_ASC_NODE":334.8482,"ARG_OF_PERICENTER":115.8508,"MEAN_ANOMALY":244.2509,"EPHEMERIS_TYPE":0,"NORAD_CAT_ID":67777,"ELEMENT_SET_NO":999,"REV_AT_EPOCH":2506,"BSTAR":0.00032335441,"MEAN_MOTION_DOT":0.00002245,"MEAN_MOTION_DDOT":0},{"OBJECT_NAME":"KUIPER-00214","OBJECT_ID":"2026-030Q","EPOCH":"2026-07-20T09:25:14.743200","CLASSIFICATION_TYPE":"U","MEAN_MOTION":14.79950105,"ECCENTRICITY":0.00004776,"INCLINATION":51.9025,"RA_OF_ASC_NODE":336.3802,"ARG_OF_PERICENTER":127.7526,"MEAN_ANOMALY":232.348,"EPHEMERIS_TYPE":0,"NORAD_CAT_ID":67778,"ELEMENT_SET_NO":999,"REV_AT_EPOCH":2496,"BSTAR":0.00026594039,"MEAN_MOTION_DOT":0.00001808,"MEAN_MOTION_DDOT":0}]}
