KUIPER-00265            
1 67159U 25301AC  26201.97509658  .00001979  00000+0  28846-3 0  9995
2 67159  51.9025 216.2561 0000398  80.0441 280.0566 14.79947635 33224
KUIPER-00159            
1 67764U 26030A   26202.25003472  .00019224  00000+0  11562-2 0  9990
2 67764  51.8988 294.6774 0006202 140.7664 143.4524 15.10846339  4432
KUIPER-00160            
1 67765U 26030B   26200.66311521  .00016989  00000+0  46595-3 0  9991
2 67765  51.8800 301.1926 0005714 159.6819 200.4396 15.37372160 25391
KUIPER-00177            
1 67766U 26030C   26200.84150525  .00001557  00000+0  23311-3 0  9993
2 67766  51.9025 348.7486 0000523 132.9764 227.1242 14.79946958 24747
KUIPER-00178            
1 67767U 26030D   26201.68561959  .00001462  00000+0  22060-3 0  9999
2 67767  51.9022 344.9991 0000460 150.7055 209.3934 14.79948662 24873
KUIPER-00180            
1 67768U 26030E   26201.75852777  .00001873  00000+0  27447-3 0  9999
2 67768  51.9000 339.6782 0000379 123.4538 236.6460 14.79954280 24950
KUIPER-00197            
1 67769U 26030F   26202.05026125  .00002050  00000+0  29775-3 0  9998
2 67769  51.9010 318.4031 0000298 184.3959 175.7001 14.79939701 25278
KUIPER-00198            
1 67770U 26030G   26201.66536637  .00001720  00000+0  25455-3 0  9994
2 67770  51.9000 332.5860 0000369 111.0157 249.0845 14.79937196 25044
KUIPER-00199            
1 67771U 26030H   26201.53379710  .00016671  00000+0  46538-3 0  9994
2 67771  51.8814 298.7393 0010070 170.1884 189.9301 15.36806245 25508
KUIPER-00200            
1 67772U 26030J   26202.01942954  .00002026  00000+0  29489-3 0  9990
2 67772  51.8992 316.0665 0001264  90.6539 269.4569 14.79904077 25306
KUIPER-00203            
1 67773U 26030K   26201.78155431  .00002096  00000+0  30382-3 0  9991
2 67773  51.9082 349.6401 0000570 126.9095 233.1919 14.79941049 24819
KUIPER-00205            
1 67774U 26030L   26202.02176746  .00001799  00000+0  26480-3 0  9995
2 67774  51.9017 313.5055 0000914 132.8076 227.2964 14.79945720 25343
KUIPER-00208            
1 67775U 26030M   26202.09338725 -.00005407  00000+0 -68060-3 0  9992
2 67775  51.9009 340.6975 0000388 262.9241  97.1678 14.79950854 24968
KUIPER-00209            
1 67776U 26030N   26201.38716946  .00001528  00000+0  22937-3 0  9990
2 67776  51.9016 341.4121 0000567 148.5547 211.5449 14.79932112 24893
KUIPER-00213            
1 67777U 26030P   26202.30150661  .00002245  00000+0  32335-3 0  9990
2 67777  51.8974 334.8482 0000535 115.8508 244.2509 14.79943094 25062
KUIPER-00214            
1 67778U 26030Q   26201.39253175  .00001808  00000+0  26594-3 0  9997
2 67778  51.9025 336.3802 0000477 127.7526 232.3480 14.79950105 24966
